FENGYUN 1C DEB          
1 30702U 99025ARL 17345.39905388  .00000476  00000-0  35657-3 0  9998
2 30702  99.0597  42.4401 0078790 110.2087 312.4131 13.97921577552691
